IRIDIUM 144             
1 43249U 18030A   23274.56414962  .00000488  00000+0  16713-3 0  9999
2 43249  86.4013 344.0243 0002004  94.6604 265.4821 14.34216641288290
IRIDIUM 149             
1 43250U 18030B   23274.43096311  .00000526  00000+0  18090-3 0  9994
2 43250  86.4013 344.0575 0001922  95.1693 264.9722 14.34220308288291
IRIDIUM 157             
1 43251U 18030C   23274.44999494  .00000505  00000+0  17327-3 0  9999
2 43251  86.4014 344.0810 0002417  92.5385 267.6087 14.34217558288279
IRIDIUM 140             
1 43252U 18030D   23274.46901819  .00000492  00000+0  16866-3 0  9998
2 43252  86.4016 344.0879 0001940  88.4618 271.6800 14.34217653288331
IRIDIUM 145             
1 43253U 18030E   23274.45633444  .00000532  00000+0  18301-3 0  9995
2 43253  86.4014 344.0675 0001805  99.6131 260.5269 14.34218939288264
IRIDIUM 146             
1 43254U 18030F   23274.57685459  .00000488  00000+0  16732-3 0  9998
2 43254  86.4014 344.0328 0002033 101.7539 258.3884 14.34218932288295
IRIDIUM 148             
1 43255U 18030G   23274.47536330  .00000686  00000+0  23778-3 0  9999
2 43255  86.4016 344.1036 0002114 103.2402 256.9029 14.34217656288311
IRIDIUM 142             
1 43256U 18030H   23274.58318012  .00000589  00000+0  20336-3 0  9996
2 43256  86.4010 343.9835 0002121  97.0271 263.1166 14.34213431288298
